{
  "type": "FeatureCollection",
  "features": [
    {
      "type": "Feature",
      "properties": {
        "norad_id": 54259,
        "name": "EUTELSAT 10B",
        "group": "eutelsat",
        "lat": 0.06255087114556443,
        "lon": 162.93030411139117,
        "alt_km": 35783.64793174576,
        "timestamp": "2025-12-25T03:55:55.979058+00:00",
        "meta_object_name": "EUTELSAT 10B",
        "meta_object_id": "2022-157A",
        "meta_epoch": "2025-12-24T16:34:13.627200",
        "meta_mean_motion": 1.00269899,
        "meta_eccentricity": 7.06e-05,
        "meta_inclination": 0.0593,
        "meta_ra_of_asc_node": 95.6956,
        "meta_arg_of_pericenter": 56.3425,
        "meta_mean_anomaly": 200.0071,
        "meta_ephemeris_type": 0,
        "meta_classification_type": "U",
        "meta_norad_cat_id": 54259,
        "meta_element_set_no": 999,
        "meta_rev_at_epoch": 1127,
        "meta_bstar": 0,
        "meta_mean_motion_dot": 8.9e-07,
        "meta_mean_motion_ddot": 0,
        "tle_line1": "1 54259U 22157A   25358.69043550  .00000089  00000+0  00000+0 0  9992",
        "tle_line2": "2 54259   0.0593  95.6956 0000706  56.3425 200.0071  1.00269899 11277"
      },
      "geometry": {
        "type": "Point",
        "coordinates": [
          162.93030411139117,
          0.06255087114556443
        ]
      }
    },
    {
      "type": "Feature",
      "properties": {
        "norad_id": 59346,
        "name": "EUTELSAT 36D",
        "group": "eutelsat",
        "lat": 0.01065116472515737,
        "lon": -171.21728931872627,
        "alt_km": 35787.185086159916,
        "timestamp": "2025-12-25T03:55:55.979069+00:00",
        "meta_object_name": "EUTELSAT 36D",
        "meta_object_id": "2024-059A",
        "meta_epoch": "2025-12-24T13:16:10.091712",
        "meta_mean_motion": 1.00273098,
        "meta_eccentricity": 3.73e-05,
        "meta_inclination": 0.0177,
        "meta_ra_of_asc_node": 32.0645,
        "meta_arg_of_pericenter": 329.4708,
        "meta_mean_anomaly": 326.7078,
        "meta_ephemeris_type": 0,
        "meta_classification_type": "U",
        "meta_norad_cat_id": 59346,
        "meta_element_set_no": 999,
        "meta_rev_at_epoch": 639,
        "meta_bstar": 0,
        "meta_mean_motion_dot": 1.77e-06,
        "meta_mean_motion_ddot": 0,
        "tle_line1": "1 59346U 24059A   25358.55289458  .00000177  00000+0  00000+0 0  9999",
        "tle_line2": "2 59346   0.0177  32.0645 0000373 329.4708 326.7078  1.00273098  6391"
      },
      "geometry": {
        "type": "Point",
        "coordinates": [
          -171.21728931872627,
          0.01065116472515737
        ]
      }
    }
  ]
}